start=new Date('2022-10-29T00:00:00.000Z').valueOf();
sats=[{"APOAPSIS":"541.215","MEAN_MOTION_DOT":"0.00011384","RA_OF_ASC_NODE":"32.7581","TLE_LINE1":"1 52612U 22052Q   22301.48390094  .00011384  00000-0  73163-3 0  9992","FILE":"3636776","LAUNCH_DATE":"2022-05-14","OBJECT_NAME":"STARLINK-4002","MEAN_ELEMENT_THEORY":"SGP4","SEMIMAJOR_AXIS":"6917.791","CENTER_NAME":"EARTH","COUNTRY_CODE":"US","SITE":"AFETR","TIME_SYSTEM":"UTC","PERIOD":"95.436","MEAN_MOTION":"15.08869391","CLASSIFICATION_TYPE":"U","OBJECT_TYPE":"PAYLOAD","MEAN_ANOMALY":"322.7017","EPOCH":"2022-10-28T11:36:49.041216","ARG_OF_PERICENTER":"37.4132","NORAD_CAT_ID":"52612","EPHEMERIS_TYPE":"0","REV_AT_EPOCH":"2544","RCS_SIZE":"LARGE","OBJECT_ID":"2022-052Q","REF_FRAME":"TEME","ECCENTRICITY":"0.00022540","TLE_LINE2":"2 52612  53.2188  32.7581 0002254  37.4132 322.7017 15.08869391 25441","MEAN_MOTION_DDOT":"0.0000000000000","DECAY_DATE":null,"GP_ID":"216378123","ELEMENT_SET_NO":"999","PERIAPSIS":"538.096","INCLINATION":"53.2188","BSTAR":"0.00073163000000"},{"CENTER_NAME":"EARTH","OBJECT_NAME":"STARLINK-3921","MEAN_ELEMENT_THEORY":"SGP4","SEMIMAJOR_AXIS":"6917.847","TLE_LINE1":"1 52613U 22052R   22301.53266184  .00002202  00000-0  15638-3 0  9993","FILE":"3636776","LAUNCH_DATE":"2022-05-14","APOAPSIS":"540.946","MEAN_MOTION_DOT":"0.00002202","RA_OF_ASC_NODE":"22.5226","SITE":"AFETR","TIME_SYSTEM":"UTC","COUNTRY_CODE":"US","REV_AT_EPOCH":"2558","EPHEMERIS_TYPE":"0","MEAN_ANOMALY":"309.6129","EPOCH":"2022-10-28T12:47:01.982976","ARG_OF_PERICENTER":"50.5020","NORAD_CAT_ID":"52613","CLASSIFICATION_TYPE":"U","MEAN_MOTION":"15.08850790","OBJECT_TYPE":"PAYLOAD","PERIOD":"95.437","ELEMENT_SET_NO":"999","PERIAPSIS":"538.479","BSTAR":"0.00015638000000","INCLINATION":"53.2173","DECAY_DATE":null,"GP_ID":"216378366","ECCENTRICITY":"0.00017830","TLE_LINE2":"2 52613  53.2173  22.5226 0001783  50.5020 309.6129 15.08850790 25583","MEAN_MOTION_DDOT":"0.0000000000000","RCS_SIZE":"LARGE","OBJECT_ID":"2022-052R","REF_FRAME":"TEME"},{"SITE":"AFETR","TIME_SYSTEM":"UTC","COUNTRY_CODE":"US","OBJECT_NAME":"STARLINK-3982","MEAN_ELEMENT_THEORY":"SGP4","SEMIMAJOR_AXIS":"6917.849","CENTER_NAME":"EARTH","APOAPSIS":"541.119","MEAN_MOTION_DOT":"-0.00002152","RA_OF_ASC_NODE":"22.5105","TLE_LINE1":"1 52614U 22052S   22301.53633777 -.00002152  00000-0 -11712-3 0  9995","FILE":"3636856","LAUNCH_DATE":"2022-05-14","GP_ID":"216379465","DECAY_DATE":null,"PERIAPSIS":"538.309","ELEMENT_SET_NO":"999","INCLINATION":"53.2190","BSTAR":"-0.00011712000000","RCS_SIZE":"LARGE","OBJECT_ID":"2022-052S","REF_FRAME":"TEME","ECCENTRICITY":"0.00020310","TLE_LINE2":"2 52614  53.2190  22.5105 0002031  32.9795 327.1323 15.08850323 25953","MEAN_MOTION_DDOT":"0.0000000000000","NORAD_CAT_ID":"52614","ARG_OF_PERICENTER":"32.9795","EPOCH":"2022-10-28T12:52:19.583328","MEAN_ANOMALY":"327.1323","EPHEMERIS_TYPE":"0","REV_AT_EPOCH":"2595","PERIOD":"95.437","MEAN_MOTION":"15.08850323","CLASSIFICATION_TYPE":"U","OBJECT_TYPE":"PAYLOAD"},{"RA_OF_ASC_NODE":"36.3982","MEAN_MOTION_DOT":"0.00002804","APOAPSIS":"541.034","LAUNCH_DATE":"2022-05-14","FILE":"3636856","TLE_LINE1":"1 52615U 22052T   22301.78336193  .00002804  00000-0  19412-3 0  9992","SEMIMAJOR_AXIS":"6917.840","OBJECT_NAME":"STARLINK-4011","MEAN_ELEMENT_THEORY":"SGP4","CENTER_NAME":"EARTH","COUNTRY_CODE":"US","TIME_SYSTEM":"UTC","SITE":"AFETR","PERIOD":"95.437","OBJECT_TYPE":"PAYLOAD","CLASSIFICATION_TYPE":"U","MEAN_MOTION":"15.08853104","NORAD_CAT_ID":"52615","ARG_OF_PERICENTER":"42.5592","MEAN_ANOMALY":"317.5548","EPOCH":"2022-10-28T18:48:02.470752","REV_AT_EPOCH":"2578","EPHEMERIS_TYPE":"0","REF_FRAME":"TEME","OBJECT_ID":"2022-052T","RCS_SIZE":"LARGE","TLE_LINE2":"2 52615  53.2181  36.3982 0001921  42.5592 317.5548 15.08853104 25782","MEAN_MOTION_DDOT":"0.0000000000000","ECCENTRICITY":"0.00019210","GP_ID":"216379466","DECAY_DATE":null,"INCLINATION":"53.2181","BSTAR":"0.00019412000000","PERIAPSIS":"538.376","ELEMENT_SET_NO":"999"},{"PERIOD":"95.437","OBJECT_TYPE":"PAYLOAD","CLASSIFICATION_TYPE":"U","MEAN_MOTION":"15.08847513","EPOCH":"2022-10-28T19:03:16.804800","MEAN_ANOMALY":"325.6509","ARG_OF_PERICENTER":"34.4622","NORAD_CAT_ID":"52616","REV_AT_EPOCH":"2599","EPHEMERIS_TYPE":"0","OBJECT_ID":"2022-052U","REF_FRAME":"TEME","RCS_SIZE":"LARGE","TLE_LINE2":"2 52616  53.2177  21.3580 0002141  34.4622 325.6509 15.08847513 25992","MEAN_MOTION_DDOT":"0.0000000000000","ECCENTRICITY":"0.00021410","GP_ID":"216379467","DECAY_DATE":null,"ELEMENT_SET_NO":"999","PERIAPSIS":"538.241","BSTAR":"0.00007318400000","INCLINATION":"53.2177","MEAN_MOTION_DOT":"0.00000877","RA_OF_ASC_NODE":"21.3580","APOAPSIS":"541.204","LAUNCH_DATE":"2022-05-14","TLE_LINE1":"1 52616U 22052U   22301.79394450  .00000877  00000-0  73184-4 0  9999","FILE":"3636856","OBJECT_NAME":"STARLINK-4015","MEAN_ELEMENT_THEORY":"SGP4","SEMIMAJOR_AXIS":"6917.857","CENTER_NAME":"EARTH","COUNTRY_CODE":"US","SITE":"AFETR","TIME_SYSTEM":"UTC"},{"SEMIMAJOR_AXIS":"6917.825","MEAN_ELEMENT_THEORY":"SGP4","OBJECT_NAME":"STARLINK-3996","CENTER_NAME":"EARTH","APOAPSIS":"541.093","RA_OF_ASC_NODE":"22.8700","MEAN_MOTION_DOT":"0.00000113","FILE":"3636845","TLE_LINE1":"1 52617U 22052V   22301.45538367  .00000113  00000-0  25174-4 0  9999","LAUNCH_DATE":"2022-05-14","TIME_SYSTEM":"UTC","SITE":"AFETR","COUNTRY_CODE":"US","ARG_OF_PERICENTER":"38.3898","MEAN_ANOMALY":"321.7238","EPOCH":"2022-10-28T10:55:45.149088","NORAD_CAT_ID":"52617","REV_AT_EPOCH":"2594","EPHEMERIS_TYPE":"0","PERIOD":"95.436","MEAN_MOTION":"15.08858199","CLASSIFICATION_TYPE":"U","OBJECT_TYPE":"PAYLOAD","GP_ID":"216379727","DECAY_DATE":null,"BSTAR":"0.00002517400000","INCLINATION":"53.2186","ELEMENT_SET_NO":"999","PERIAPSIS":"538.286","RCS_SIZE":"LARGE","REF_FRAME":"TEME","OBJECT_ID":"2022-052V","ECCENTRICITY":"0.00020290","MEAN_MOTION_DDOT":"0.0000000000000","TLE_LINE2":"2 52617  53.2186  22.8700 0002029  38.3898 321.7238 15.08858199 25949"},{"MEAN_MOTION":"15.08843466","CLASSIFICATION_TYPE":"U","OBJECT_TYPE":"PAYLOAD","PERIOD":"95.437","REV_AT_EPOCH":"2557","EPHEMERIS_TYPE":"0","EPOCH":"2022-10-28T12:36:25.837920","ARG_OF_PERICENTER":"44.9900","MEAN_ANOMALY":"315.1247","NORAD_CAT_ID":"52618","ECCENTRICITY":"0.00019170","TLE_LINE2":"2 52618  53.2186  22.5744 0001917  44.9900 315.1247 15.08843466 25574","MEAN_MOTION_DDOT":"0.0000000000000","RCS_SIZE":"LARGE","REF_FRAME":"TEME","OBJECT_ID":"2022-052W","BSTAR":"0.00018743000000","INCLINATION":"53.2186","PERIAPSIS":"538.409","ELEMENT_SET_NO":"999","DECAY_DATE":null,"GP_ID":"216378718","FILE":"3636776","TLE_LINE1":"1 52618U 22052W   22301.52529905  .00002696  00000-0  18743-3 0  9997","LAUNCH_DATE":"2022-05-14","APOAPSIS":"541.061","RA_OF_ASC_NODE":"22.5744","MEAN_MOTION_DOT":"0.00002696","CENTER_NAME":"EARTH","SEMIMAJOR_AXIS":"6917.870","MEAN_ELEMENT_THEORY":"SGP4","OBJECT_NAME":"STARLINK-3983","COUNTRY_CODE":"US","TIME_SYSTEM":"UTC","SITE":"AFETR"},{"MEAN_MOTION":"15.08842262","CLASSIFICATION_TYPE":"U","OBJECT_TYPE":"PAYLOAD","PERIOD":"95.437","REV_AT_EPOCH":"2561","EPHEMERIS_TYPE":"0","EPOCH":"2022-10-28T18:48:45.057312","ARG_OF_PERICENTER":"36.6088","MEAN_ANOMALY":"323.5055","NORAD_CAT_ID":"52619","ECCENTRICITY":"0.00022000","MEAN_MOTION_DDOT":"0.0000000000000","TLE_LINE2":"2 52619  53.2196  21.4117 0002200  36.6088 323.5055 15.08842262 25617","RCS_SIZE":"LARGE","REF_FRAME":"TEME","OBJECT_ID":"2022-052X","BSTAR":"0.00008847200000","INCLINATION":"53.2196","PERIAPSIS":"538.217","ELEMENT_SET_NO":"999","DECAY_DATE":null,"GP_ID":"216410449","FILE":"3637111","TLE_LINE1":"1 52619U 22052X   22301.78385483  .00001120  00000-0  88472-4 0  9995","LAUNCH_DATE":"2022-05-14","APOAPSIS":"541.260","RA_OF_ASC_NODE":"21.4117","MEAN_MOTION_DOT":"0.00001120","CENTER_NAME":"EARTH","SEMIMAJOR_AXIS":"6917.873","MEAN_ELEMENT_THEORY":"SGP4","OBJECT_NAME":"STARLINK-3741","COUNTRY_CODE":"US","TIME_SYSTEM":"UTC","SITE":"AFETR"},{"LAUNCH_DATE":"2022-05-14","TLE_LINE1":"1 52620U 22052Y   22301.71343829  .00001202  00000-0  93611-4 0  9990","FILE":"3637111","MEAN_MOTION_DOT":"0.00001202","RA_OF_ASC_NODE":"36.7148","APOAPSIS":"541.164","CENTER_NAME":"EARTH","MEAN_ELEMENT_THEORY":"SGP4","OBJECT_NAME":"STARLINK-3975","SEMIMAJOR_AXIS":"6917.855","COUNTRY_CODE":"US","SITE":"AFETR","TIME_SYSTEM":"UTC","OBJECT_TYPE":"PAYLOAD","CLASSIFICATION_TYPE":"U","MEAN_MOTION":"15.08848459","PERIOD":"95.437","REV_AT_EPOCH":"2539","EPHEMERIS_TYPE":"0","NORAD_CAT_ID":"52620","EPOCH":"2022-10-28T17:07:21.068256","ARG_OF_PERICENTER":"47.4147","MEAN_ANOMALY":"312.7021","TLE_LINE2":"2 52620  53.2184  36.7148 0002088  47.4147 312.7021 15.08848459 25391","MEAN_MOTION_DDOT":"0.0000000000000","ECCENTRICITY":"0.00020880","OBJECT_ID":"2022-052Y","REF_FRAME":"TEME","RCS_SIZE":"LARGE","PERIAPSIS":"538.275","ELEMENT_SET_NO":"999","INCLINATION":"53.2184","BSTAR":"0.00009361100000","GP_ID":"216411218","DECAY_DATE":null},{"COUNTRY_CODE":"US","TIME_SYSTEM":"UTC","SITE":"AFETR","RA_OF_ASC_NODE":"22.6415","MEAN_MOTION_DOT":"0.00002291","APOAPSIS":"541.141","LAUNCH_DATE":"2022-05-14","FILE":"3636776","TLE_LINE1":"1 52621U 22052Z   22301.51057126  .00002291  00000-0  16193-3 0  9999","SEMIMAJOR_AXIS":"6917.851","OBJECT_NAME":"STARLINK-3984","MEAN_ELEMENT_THEORY":"SGP4","CENTER_NAME":"EARTH","REF_FRAME":"TEME","OBJECT_ID":"2022-052Z","RCS_SIZE":"LARGE","TLE_LINE2":"2 52621  53.2186  22.6415 0002060  37.2562 322.8573 15.08849674 25577","MEAN_MOTION_DDOT":"0.0000000000000","ECCENTRICITY":"0.00020600","DECAY_DATE":null,"GP_ID":"216378367","INCLINATION":"53.2186","BSTAR":"0.00016193000000","ELEMENT_SET_NO":"999","PERIAPSIS":"538.291","PERIOD":"95.437","OBJECT_TYPE":"PAYLOAD","MEAN_MOTION":"15.08849674","CLASSIFICATION_TYPE":"U","NORAD_CAT_ID":"52621","EPOCH":"2022-10-28T12:15:13.356864","MEAN_ANOMALY":"322.8573","ARG_OF_PERICENTER":"37.2562","EPHEMERIS_TYPE":"0","REV_AT_EPOCH":"2557"}];
